STARLINK-2374
1 27913C 21021BF  21325.08250085  .00002404  00000-0  16101-3 0  3256
2 27913  53.0553 127.8642 0001658  86.4230 305.1234 15.06406414    10
